start=new Date('2022-02-18T00:00:00.000Z').valueOf();
sats=[{"OBJECT_TYPE":"PAYLOAD","DECAY_DATE":null,"TLE_LINE2":"2 46382  53.0539 140.6591 0001533  62.1349 297.9795 15.06414615 81700","REV_AT_EPOCH":"8170","MEAN_MOTION_DDOT":"0.0000000000000","RA_OF_ASC_NODE":"140.6591","ELEMENT_SET_NO":"999","FILE":"3304735","TIME_SYSTEM":"UTC","ECCENTRICITY":"0.00015330","REF_FRAME":"TEME","COUNTRY_CODE":"US","CENTER_NAME":"EARTH","SITE":"AFETR","EPHEMERIS_TYPE":"0","RCS_SIZE":"LARGE","PERIOD":"95.591","SEMIMAJOR_AXIS":"6925.304","MEAN_ELEMENT_THEORY":"SGP4","PERIAPSIS":"546.107","EPOCH":"2022-02-17T13:33:41.972832","OBJECT_NAME":"STARLINK-1769","MEAN_ANOMALY":"297.9795","CLASSIFICATION_TYPE":"U","NORAD_CAT_ID":"46382","INCLINATION":"53.0539","APOAPSIS":"548.230","GP_ID":"196206880","TLE_LINE1":"1 46382U 20062BK  22048.56506913  .00008658  00000-0  59919-3 0  9997","MEAN_MOTION":"15.06414615","LAUNCH_DATE":"2020-09-03","ARG_OF_PERICENTER":"62.1349","BSTAR":"0.00059919000000","OBJECT_ID":"2020-062BK","MEAN_MOTION_DOT":"0.00008658"},{"PERIOD":"95.592","RCS_SIZE":"LARGE","EPHEMERIS_TYPE":"0","SITE":"AFETR","MEAN_ELEMENT_THEORY":"SGP4","SEMIMAJOR_AXIS":"6925.344","OBJECT_NAME":"STARLINK-1770","EPOCH":"2022-02-17T16:25:31.658016","PERIAPSIS":"546.298","NORAD_CAT_ID":"46383","CLASSIFICATION_TYPE":"U","MEAN_ANOMALY":"284.4649","GP_ID":"196242737","APOAPSIS":"548.119","INCLINATION":"53.0546","LAUNCH_DATE":"2020-09-03","TLE_LINE1":"1 46383U 20062BL  22048.68439419  .00001276  00000-0  10452-3 0  9995","MEAN_MOTION":"15.06401615","ARG_OF_PERICENTER":"75.6486","BSTAR":"0.00010452000000","OBJECT_ID":"2020-062BL","MEAN_MOTION_DOT":"0.00001276","OBJECT_TYPE":"PAYLOAD","TLE_LINE2":"2 46383  53.0546 185.1144 0001315  75.6486 284.4649 15.06401615 81082","REV_AT_EPOCH":"8108","DECAY_DATE":null,"RA_OF_ASC_NODE":"185.1144","MEAN_MOTION_DDOT":"0.0000000000000","FILE":"3305402","ELEMENT_SET_NO":"999","TIME_SYSTEM":"UTC","REF_FRAME":"TEME","ECCENTRICITY":"0.00013150","CENTER_NAME":"EARTH","COUNTRY_CODE":"US"},{"TLE_LINE1":"1 46384U 20062BM  22048.68808499  .00004134  00000-0  29622-3 0  9999","MEAN_MOTION":"15.06400624","LAUNCH_DATE":"2020-09-03","GP_ID":"196243488","APOAPSIS":"548.167","INCLINATION":"53.0551","MEAN_MOTION_DOT":"0.00004134","BSTAR":"0.00029622000000","ARG_OF_PERICENTER":"77.7833","OBJECT_ID":"2020-062BM","SEMIMAJOR_AXIS":"6925.347","MEAN_ELEMENT_THEORY":"SGP4","EPHEMERIS_TYPE":"0","RCS_SIZE":"LARGE","PERIOD":"95.592","SITE":"AFETR","NORAD_CAT_ID":"46384","MEAN_ANOMALY":"282.3311","CLASSIFICATION_TYPE":"U","OBJECT_NAME":"STARLINK-1771","EPOCH":"2022-02-17T16:30:50.543136","PERIAPSIS":"546.257","TIME_SYSTEM":"UTC","FILE":"3305402","ELEMENT_SET_NO":"999","COUNTRY_CODE":"US","CENTER_NAME":"EARTH","ECCENTRICITY":"0.00013790","REF_FRAME":"TEME","TLE_LINE2":"2 46384  53.0551 185.0891 0001379  77.7833 282.3311 15.06400624 81088","REV_AT_EPOCH":"8108","DECAY_DATE":null,"OBJECT_TYPE":"PAYLOAD","RA_OF_ASC_NODE":"185.0891","MEAN_MOTION_DDOT":"0.0000000000000"},{"TIME_SYSTEM":"UTC","FILE":"3304735","ELEMENT_SET_NO":"999","CENTER_NAME":"EARTH","COUNTRY_CODE":"US","REF_FRAME":"TEME","ECCENTRICITY":"0.00015010","TLE_LINE2":"2 46532  53.0550 345.6867 0001501  72.6646 287.4507 15.06400725 76261","REV_AT_EPOCH":"7626","DECAY_DATE":null,"OBJECT_TYPE":"PAYLOAD","MEAN_MOTION_DDOT":"0.0000000000000","RA_OF_ASC_NODE":"345.6867","LAUNCH_DATE":"2020-10-06","TLE_LINE1":"1 46532U 20070A   22048.55539434  .00004032  00000-0  28943-3 0  9991","MEAN_MOTION":"15.06400725","INCLINATION":"53.0550","APOAPSIS":"548.251","GP_ID":"196206894","MEAN_MOTION_DOT":"0.00004032","BSTAR":"0.00028943000000","ARG_OF_PERICENTER":"72.6646","OBJECT_ID":"2020-070A","MEAN_ELEMENT_THEORY":"SGP4","SEMIMAJOR_AXIS":"6925.346","SITE":"AFETR","PERIOD":"95.592","RCS_SIZE":"LARGE","EPHEMERIS_TYPE":"0","CLASSIFICATION_TYPE":"U","MEAN_ANOMALY":"287.4507","NORAD_CAT_ID":"46532","EPOCH":"2022-02-17T13:19:46.070976","PERIAPSIS":"546.172","OBJECT_NAME":"STARLINK-1644"},{"ARG_OF_PERICENTER":"64.9336","OBJECT_ID":"2020-070B","BSTAR":"0.00071113000000","MEAN_MOTION_DOT":"0.00010330","INCLINATION":"53.0529","APOAPSIS":"548.329","GP_ID":"196207145","LAUNCH_DATE":"2020-10-06","MEAN_MOTION":"15.06413539","TLE_LINE1":"1 46533U 20070B   22048.10202653  .00010330  00000-0  71113-3 0  9998","EPOCH":"2022-02-17T02:26:55.092192","PERIAPSIS":"546.016","OBJECT_NAME":"STARLINK-1648","CLASSIFICATION_TYPE":"U","MEAN_ANOMALY":"295.1826","NORAD_CAT_ID":"46533","SITE":"AFETR","PERIOD":"95.591","RCS_SIZE":"LARGE","EPHEMERIS_TYPE":"0","SEMIMAJOR_AXIS":"6925.307","MEAN_ELEMENT_THEORY":"SGP4","REF_FRAME":"TEME","ECCENTRICITY":"0.00016700","CENTER_NAME":"EARTH","COUNTRY_CODE":"US","ELEMENT_SET_NO":"999","FILE":"3304735","TIME_SYSTEM":"UTC","MEAN_MOTION_DDOT":"0.0000000000000","RA_OF_ASC_NODE":"347.7183","OBJECT_TYPE":"PAYLOAD","TLE_LINE2":"2 46533  53.0529 347.7183 0001670  64.9336 295.1826 15.06413539 76198","REV_AT_EPOCH":"7619","DECAY_DATE":null},{"COUNTRY_CODE":"US","CENTER_NAME":"EARTH","ECCENTRICITY":"0.00014890","REF_FRAME":"TEME","TIME_SYSTEM":"UTC","FILE":"3304735","ELEMENT_SET_NO":"999","MEAN_MOTION_DDOT":"0.0000000000000","RA_OF_ASC_NODE":"345.7210","TLE_LINE2":"2 46534  53.0568 345.7210 0001489  63.6056 296.5086 15.06389456 76265","REV_AT_EPOCH":"7626","DECAY_DATE":null,"OBJECT_TYPE":"PAYLOAD","MEAN_MOTION_DOT":"0.00005841","OBJECT_ID":"2020-070C","ARG_OF_PERICENTER":"63.6056","BSTAR":"0.00041078000000","TLE_LINE1":"1 46534U 20070C   22048.54803027  .00005841  00000-0  41078-3 0  9997","MEAN_MOTION":"15.06389456","LAUNCH_DATE":"2020-10-06","APOAPSIS":"548.277","INCLINATION":"53.0568","GP_ID":"196206617","MEAN_ANOMALY":"296.5086","CLASSIFICATION_TYPE":"U","NORAD_CAT_ID":"46534","EPOCH":"2022-02-17T13:09:09.815328","PERIAPSIS":"546.215","OBJECT_NAME":"STARLINK-1659","SEMIMAJOR_AXIS":"6925.381","MEAN_ELEMENT_THEORY":"SGP4","SITE":"AFETR","RCS_SIZE":"LARGE","EPHEMERIS_TYPE":"0","PERIOD":"95.593"},{"MEAN_MOTION_DDOT":"0.0000000000000","RA_OF_ASC_NODE":"344.2868","REV_AT_EPOCH":"7630","TLE_LINE2":"2 46535  53.0554 344.2868 0001719  70.1762 289.9412 15.06396272 76305","DECAY_DATE":null,"OBJECT_TYPE":"PAYLOAD","COUNTRY_CODE":"US","CENTER_NAME":"EARTH","ECCENTRICITY":"0.00017190","REF_FRAME":"TEME","TIME_SYSTEM":"UTC","ELEMENT_SET_NO":"999","FILE":"3305402","MEAN_ANOMALY":"289.9412","CLASSIFICATION_TYPE":"U","NORAD_CAT_ID":"46535","EPOCH":"2022-02-17T20:50:55.883040","PERIAPSIS":"546.035","OBJECT_NAME":"STARLINK-1663","MEAN_ELEMENT_THEORY":"SGP4","SEMIMAJOR_AXIS":"6925.360","SITE":"AFETR","EPHEMERIS_TYPE":"0","RCS_SIZE":"LARGE","PERIOD":"95.592","MEAN_MOTION_DOT":"0.00002153","ARG_OF_PERICENTER":"70.1762","BSTAR":"0.00016344000000","OBJECT_ID":"2020-070D","TLE_LINE1":"1 46535U 20070D   22048.86870235  .00002153  00000-0  16344-3 0  9999","MEAN_MOTION":"15.06396272","LAUNCH_DATE":"2020-10-06","APOAPSIS":"548.415","INCLINATION":"53.0554","GP_ID":"196243753"},{"RA_OF_ASC_NODE":"346.8450","MEAN_MOTION_DDOT":"0.0000000000000","TLE_LINE2":"2 46537  53.0548 346.8450 0001469  68.2495 291.8651 15.06399693 76226","REV_AT_EPOCH":"7622","DECAY_DATE":null,"OBJECT_TYPE":"PAYLOAD","COUNTRY_CODE":"US","CENTER_NAME":"EARTH","ECCENTRICITY":"0.00014690","REF_FRAME":"TEME","TIME_SYSTEM":"UTC","ELEMENT_SET_NO":"999","FILE":"3304735","NORAD_CAT_ID":"46537","MEAN_ANOMALY":"291.8651","CLASSIFICATION_TYPE":"U","OBJECT_NAME":"STARLINK-1672","PERIAPSIS":"546.197","EPOCH":"2022-02-17T07:08:13.338240","MEAN_ELEMENT_THEORY":"SGP4","SEMIMAJOR_AXIS":"6925.349","EPHEMERIS_TYPE":"0","RCS_SIZE":"LARGE","PERIOD":"95.592","SITE":"AFETR","MEAN_MOTION_DOT":"-0.00000637","OBJECT_ID":"2020-070F","ARG_OF_PERICENTER":"68.2495","BSTAR":"-0.00002385800000","MEAN_MOTION":"15.06399693","TLE_LINE1":"1 46537U 20070F   22048.29737660 -.00000637  00000-0 -23858-4 0  9998","LAUNCH_DATE":"2020-10-06","GP_ID":"196206394","INCLINATION":"53.0548","APOAPSIS":"548.232"},{"MEAN_MOTION_DDOT":"0.0000000000000","RA_OF_ASC_NODE":"344.2653","TLE_LINE2":"2 46538  53.0556 344.2653 0001743  65.9294 294.1877 15.06399568 76305","DECAY_DATE":null,"REV_AT_EPOCH":"7630","OBJECT_TYPE":"PAYLOAD","COUNTRY_CODE":"US","CENTER_NAME":"EARTH","ECCENTRICITY":"0.00017430","REF_FRAME":"TEME","TIME_SYSTEM":"UTC","ELEMENT_SET_NO":"999","FILE":"3305402","MEAN_ANOMALY":"294.1877","CLASSIFICATION_TYPE":"U","NORAD_CAT_ID":"46538","EPOCH":"2022-02-17T20:56:13.453152","PERIAPSIS":"546.008","OBJECT_NAME":"STARLINK-1678","SEMIMAJOR_AXIS":"6925.350","MEAN_ELEMENT_THEORY":"SGP4","SITE":"AFETR","RCS_SIZE":"LARGE","EPHEMERIS_TYPE":"0","PERIOD":"95.592","MEAN_MOTION_DOT":"0.00000274","OBJECT_ID":"2020-070G","ARG_OF_PERICENTER":"65.9294","BSTAR":"0.00003730200000","MEAN_MOTION":"15.06399568","TLE_LINE1":"1 46538U 20070G   22048.87237793  .00000274  00000-0  37302-4 0  9999","LAUNCH_DATE":"2020-10-06","INCLINATION":"53.0556","APOAPSIS":"548.422","GP_ID":"196243252"},{"BSTAR":"0.00124810000000","OBJECT_ID":"2020-070H","ARG_OF_PERICENTER":"112.2103","MEAN_MOTION_DOT":"0.00169567","INCLINATION":"53.0487","APOAPSIS":"353.571","GP_ID":"196243002","TLE_LINE1":"1 46539U 20070H   22048.93354809  .00169567  00000-0  12481-2 0  9995","MEAN_MOTION":"15.72041246","LAUNCH_DATE":"2020-10-06","PERIAPSIS":"352.560","EPOCH":"2022-02-17T22:24:18.554976","OBJECT_NAME":"STARLINK-1684","MEAN_ANOMALY":"247.8994","CLASSIFICATION_TYPE":"U","NORAD_CAT_ID":"46539","SITE":"AFETR","RCS_SIZE":"LARGE","EPHEMERIS_TYPE":"0","PERIOD":"91.601","MEAN_ELEMENT_THEORY":"SGP4","SEMIMAJOR_AXIS":"6731.201","ECCENTRICITY":"0.00007510","REF_FRAME":"TEME","COUNTRY_CODE":"US","CENTER_NAME":"EARTH","ELEMENT_SET_NO":"999","FILE":"3305402","TIME_SYSTEM":"UTC","MEAN_MOTION_DDOT":"0.0000000000000","RA_OF_ASC_NODE":"322.7500","OBJECT_TYPE":"PAYLOAD","TLE_LINE2":"2 46539  53.0487 322.7500 0000751 112.2103 247.8994 15.72041246 76624","REV_AT_EPOCH":"7662","DECAY_DATE":null}];
